satname,norad_id,inclination_deg,eccentricity,mean_motion_rev_per_day,perigee_km,apogee_km,l1,l2
STARLINK-1153,45080,53.0534,0.0001556,15.06396475,546.1447756599891,548.2999474933122,1 45080U 20006AN  25316.28197812  .00001547  00000+0  12277-3 0  9998,2 45080  53.0534  73.6769 0001556 107.5753 252.5406 15.06396475319049
STARLINK-1151,45081,53.0576,0.0001278,15.06399369,546.3284320702114,548.0985516559322,1 45081U 20006AP  25316.06819408  .00002478  00000+0  18521-3 0  9999,2 45081  53.0576  74.7176 0001278  83.2747 276.8387 15.06399369319013
STARLINK-1190,45083,53.0355,0.0005663,15.98828787,273.8979843113184,281.436348109969,1 45083U 20006AR  25316.33336806  .00415602  83734-4  85055-3 0  9990,2 45083  53.0355  16.6637 0005663 352.6762 137.9879 15.98828787  5993
STARLINK-1185,45087,53.0568,0.0001506,15.06403575,546.1576452571135,548.2435569425652,1 45087U 20006AV  25316.30962387 -.00001150  00000+0 -58288-4 0  9990,2 45087  53.0568  53.5559 0001506  80.4173 279.6986 15.06403575319332
STARLINK-1183,45088,53.0555,0.0002131,15.06427936,545.6501659125561,548.6017129773481,1 45088U 20006AW  25316.26537470 -.00001992  00000+0 -11473-3 0  9995,2 45088  53.0555  53.7565 0002131 109.1179 251.0041 15.06427936319320
STARLINK-1142,45093,53.0335,0.0007744,15.66589585,363.44627408325596,373.8957303170637,1 45093U 20006BB  25316.91668980  .00479163  00000+0  42391-2 0  9993,2 45093  53.0335 339.0047 0007744  43.4088 283.9677 15.66589585  6003
STARLINK-1152,45096,53.0451,0.0004376,15.25370344,486.66823306600327,492.6789408917266,1 45096U 20006BE  25316.58740937  .00042061  00000+0  16490-2 0  9996,2 45096  53.0451  32.9662 0004376 231.8583 128.2020 15.25370344319644
STARLINK-1184,45098,53.0535,0.0001587,15.06450418,545.9580100456142,548.1560666333826,1 45098U 20006BG  25316.67818405  .00009373  00000+0  64639-3 0  9992,2 45098  53.0535  51.9003 0001587 101.6435 258.4732 15.06450418319387
STARLINK-1193,45100,53.0555,0.0001347,15.06414833,546.2332589754442,548.0989356298578,1 45100U 20006BJ  25316.67452203  .00002562  00000+0  19076-3 0  9994,2 45100  53.0555  51.9180 0001347  96.1291 263.9852 15.06414833319386
STARLINK-1143,45179,53.0487,0.0010012,15.42063272,433.1944180122209,446.8470971059569,1 45179U 20012B   25315.99378062  .00026944  00000+0  62747-3 0  9994,2 45179  53.0487 175.8246 0010012  93.2299 266.9851 15.42063272317657
STARLINK-1202,45183,53.0528,0.0001581,15.06429298,546.026881832493,548.2166486540627,1 45183U 20012F   25316.14005938  .00005175  00000+0  36574-3 0  9998,2 45183  53.0528 214.3208 0001581  87.6170 272.5000 15.06429298317126
STARLINK-1216,45185,53.0542,0.0001881,15.06426546,545.827556706141,548.4328422265799,1 45185U 20012H   25316.00000995  .00010365  00000+0  71322-3 0  9990,2 45185  53.0542 214.9483 0001881  84.7790 275.3414 15.06426546317048
STARLINK-1225,45187,53.0536,0.0001342,15.06434642,546.1760197039048,548.034754760637,1 45187U 20012K   25316.08477670  .00013804  00000+0  94293-3 0  9991,2 45187  53.0536 214.5667 0001342  87.6490 272.4653 15.06434642317100
STARLINK-1230,45189,53.0537,0.0001358,15.06439521,546.1499885278508,548.0308802990376,1 45189U 20012M   25316.08846395  .00011979  00000+0  82086-3 0  9995,2 45189  53.0537 214.5542 0001358  91.6690 268.4454 15.06439521314336
STARLINK-1234,45190,53.0529,0.0003999,15.37719447,450.12318291697375,455.586610235855,1 45190U 20012N   25315.98941204  .00082380  00000+0  21776-2 0  9992,2 45190  53.0529 169.5356 0003999 127.5509 232.5858 15.37719447317630
STARLINK-1269,45197,53.0524,0.0001752,15.06427396,545.9142880595773,548.3409007734599,1 45197U 20012V   25316.09952752  .00015900  00000+0  10831-2 0  9996,2 45197  53.0524 214.5042 0001752  88.4937 271.6253 15.06427396317087
STARLINK-1154,45198,53.0512,0.0001201,15.06402,546.3736946074823,548.0371618587433,1 45198U 20012W   25316.68744500  .00027229  00000+0  18397-2 0  9994,2 45198  53.0512 191.8613 0001201  88.3007 271.8120 15.06402000317420
STARLINK-1199,45201,53.0552,0.0001849,15.06403054,545.9217026662582,548.4826931016369,1 45201U 20012Z   25316.03501988 -.00002246  00000+0 -13191-3 0  9991,2 45201  53.0552 194.7947 0001849  96.6398 263.4802 15.06403054317383
STARLINK-1209,45206,53.0525,0.0002996,15.31805156,468.37471895487033,472.47837823318696,1 45206U 20012AE  25316.81124434  .00082107  00000+0  26197-2 0  9990,2 45206  53.0525 166.7971 0002996 131.9933 228.1323 15.31805156316894
STARLINK-1210,45207,53.0236,0.000972,15.60016124,381.03415426354786,394.18676732733456,1 45207U 20012AF  25316.91668980  .00202136  00000+0  23950-2 0  9991,2 45207  53.0236 126.0756 0009720 105.2663  78.4264 15.60016124  5997
STARLINK-1231,45212,53.044,0.0009019,15.1322656,520.1406567497379,532.5950025614702,1 45212U 20012AL  25316.66307507  .00074505  00000+0  41157-2 0  9990,2 45212  53.0440 189.7710 0009019  85.8476 274.3546 15.13226560317465
STARLINK-1271,45217,53.0525,0.0001471,15.06421037,546.1283740248327,548.1657926021435,1 45217U 20012AR  25316.68373899  .00002455  00000+0  18353-3 0  9992,2 45217  53.0525 191.8761 0001471 107.9943 252.1206 15.06421037317480
STARLINK-1191,45222,53.0563,4.1e-05,15.06398857,546.9311216363676,547.4990005053751,1 45222U 20012AW  25316.02950087  .00000618  00000+0  60324-4 0  9991,2 45222  53.0563 174.8178 0000410  23.5813 336.5195 15.06398857317669
STARLINK-1212,45223,53.0539,0.0001622,15.06415041,546.0421757641589,548.2887438821253,1 45223U 20012AX  25316.64512604  .00003426  00000+0  24867-3 0  9990,2 45223  53.0539 172.7072 0001622  83.8634 276.2540 15.06415041317758
STARLINK-1215,45225,53.0523,0.0001464,15.06394662,546.2140447637539,548.2417916117993,1 45225U 20012AZ  25316.86619591  .00004463  00000+0  31836-3 0  9995,2 45225  53.0523 171.0575 0001464  93.1289 266.9867 15.06394662317749
STARLINK-1221,45227,53.0667,0.0003393,15.37220947,452.0133591361837,456.649872338824,1 45227U 20012BB  25316.67494188  .00032347  00000+0  88114-3 0  9992,2 45227  53.0667 102.1454 0003393  23.2194 336.8961 15.37220947318687
STARLINK-1222,45228,53.0527,0.0001898,15.06406194,545.8781467322251,548.5070018386241,1 45228U 20012BC  25316.63398925  .00002052  00000+0  15658-3 0  9994,2 45228  53.0527 172.1017 0001898  92.3371 267.7836 15.06406194317641
STARLINK-1226,45229,53.0549,0.0001204,15.06404243,546.3647433842289,548.0323641855803,1 45229U 20012BD  25316.86251829  .00001071  00000+0  90754-4 0  9992,2 45229  53.0549 171.0741 0001204  88.1599 271.9527 15.06404243317685
STARLINK-1227,45230,53.0525,0.0001484,15.06405459,546.1671076969251,548.2225461831622,1 45230U 20012BE  25316.85883693  .00002281  00000+0  17192-3 0  9991,2 45230  53.0525 171.0907 0001484  86.1556 273.9603 15.06405459317807
STARLINK-1246,45235,53.0556,0.0001518,15.06408058,546.1355972767642,548.2381256010967,1 45235U 20012BK  25316.74088015  .00002749  00000+0  20334-3 0  9990,2 45235  53.0556 211.6216 0001518  83.6007 276.5155 15.06408058317237
STARLINK-1270,45237,53.0513,0.0001398,15.06407146,546.221495897481,548.1578172306563,1 45237U 20012BM  25316.87725973  .00001340  00000+0  10882-3 0  9990,2 45237  53.0513 171.0101 0001398  87.8516 272.2633 15.06407146317793
STARLINK-1279,45360,53.0521,0.0005828,15.36288786,453.1115493073112,461.0786958694007,1 45360U 20019A   25316.23676630  .00212307  00000+0  57593-2 0  9995,2 45360  53.0521 298.9477 0005828  50.5163 309.6354 15.36288786312500
STARLINK-1301,45361,53.0524,0.0005279,15.38875137,445.83015892914864,453.0387088490488,1 45361U 20019B   25316.24570986  .00221462  00000+0  55185-2 0  9991,2 45361  53.0524 308.4221 0005279  41.1061 319.0339 15.38875137312389
STARLINK-1306,45362,53.045,0.0006766,15.73821405,343.4362076448606,352.5379987813294,1 45362U 20019C   25316.33336806  .00329549  00000+0  22002-2 0  9990,2 45362  53.0450 295.2750 0006766   5.9275 232.8419 15.73821405  5978
STARLINK-1262,45366,53.0547,0.0001426,15.06423059,546.1533416992888,548.1284309524681,1 45366U 20019G   25316.32435965  .00009682  00000+0  66755-3 0  9996,2 45366  53.0547 333.4884 0001426  84.4879 275.6273 15.06423059312043
STARLINK-1273,45367,53.0554,0.0001284,15.06379165,546.3861919944129,548.1646379025715,1 45367U 20019H   25316.21380442 -.00001276  00000+0 -66856-4 0  9990,2 45367  53.0554 333.9857 0001284  90.8010 269.3126 15.06379165312020
STARLINK-1276,45368,53.0548,0.0001384,15.06422098,546.1853727118032,548.1022904459842,1 45368U 20019J   25316.31698308  .00006728  00000+0  46985-3 0  9990,2 45368  53.0548 333.5261 0001384  93.4417 266.6730 15.06422098312047
STARLINK-1277,45369,53.0559,0.0001646,15.06416216,546.0219544875044,548.3017628717816,1 45369U 20019K   25316.30969359  .00005753  00000+0  40461-3 0  9997,2 45369  53.0559 334.1863 0001646  85.8258 274.2919 15.06416216312032
STARLINK-1281,45370,53.0557,0.0001567,15.06414471,546.0820115933284,548.252401931727,1 45370U 20019L   25316.30592506  .00004283  00000+0  30613-3 0  9990,2 45370  53.0557 333.5771 0001567  86.2631 273.8538 15.06414471312049
STARLINK-1300,45374,53.0547,0.0001486,15.06423399,546.110748162564,548.1689404406907,1 45374U 20019Q   25316.32804632  .00009040  00000+0  62460-3 0  9993,2 45374  53.0547 333.4733 0001486  86.4544 273.6615 15.06423399312047
STARLINK-1302,45375,53.0552,0.000121,15.06402723,546.3652461823376,548.0411785137267,1 45375U 20019R   25316.74085878 -.00000545  00000+0 -17699-4 0  9991,2 45375  53.0552 331.6213 0001210  97.5512 262.5614 15.06402723312101
STARLINK-1304,45376,53.0563,0.0001693,15.06411566,546.0036545313624,548.3485655504219,1 45376U 20019S   25316.29487101  .00002370  00000+0  17790-3 0  9994,2 45376  53.0563 333.6245 0001693  92.6618 267.4564 15.06411566312034
STARLINK-1305,45377,53.0542,0.0003806,15.33194534,463.68349818365095,468.8934748639931,1 45377U 20019T   25316.91668980  .00169343  00000+0  51009-2 0  9994,2 45377  53.0542 326.2901 0003806  44.7527 118.8837 15.33194534  5858
